IDEFIX & ARIANE 42P R/B 
1 27422U 02021B   26049.89705887  .00000251  00000+0  11198-3 0  9995
2 27422  98.5853 348.7302 0010716 240.9866 119.0243 14.31011891241336
AQUA                    
1 27424U 02022A   26050.21213723  .00000924  00000+0  19448-3 0  9992
2 27424  98.4142  17.2456 0001121  46.9998  50.7390 14.61928221266031
CZ-4B R/B               
1 27432U 02024C   26050.10996098  .00000041  00000+0  43719-4 0  9993
2 27432  98.8883 103.6065 0051105  76.2594 313.7725 14.14544164226619
MIDORI II (ADEOS-II)    
1 27597U 02056A   26049.90231773  .00000255  00000+0  11821-3 0  9993
2 27597  98.7737   8.2542 0002114  69.1137 291.0271 14.29270306207611
H-2A R/B                
1 27601U 02056E   26049.93174903  .00000251  00000+0  10261-3 0  9996
2 27601  98.3170  11.0155 0069373 216.7599 189.8898 14.33747070211423
CZ-4B R/B               
1 28059U 03049C   26049.95364529  .00000402  00000+0  10405-3 0  9992
2 28059  98.6860  44.1264 0047068 289.5051  70.1064 14.54999451183875
CZ-2C R/B               
1 28222U 04012C   26050.11069147  .00043519  00000+0  49065-3 0  9993
2 28222  97.7278 113.6725 0014768  22.5747 337.6156 15.62280756201372
SL-16 R/B               
1 28353U 04021B   26050.07176675  .00000307  00000+0  18447-3 0  9996
2 28353  70.9990 271.5660 0003233  54.0365 306.1057 14.14596233120203
CZ-4B R/B               
1 28415U 04035C   26050.12521593  .00006964  00000+0  24817-3 0  9992
2 28415  97.3524  84.5926 0033300  37.3688 322.9859 15.28702286177071
CZ-2C R/B               
1 28480U 04046B   26049.76377179  .00000109  00000+0  55890-4 0  9994
2 28480  98.1993 325.9239 0138709 210.4461 148.8614 14.26985143105801
ARIANE 5 R/B            
1 28499U 04049H   26050.03878470  .00000783  00000+0  92656-4 0  9998
2 28499  98.2595 217.8017 0085161  52.1175 308.7702 14.85227616143029
CZ-2D R/B               
1 28738U 05024B   26050.03395560  .00034562  00000+0  45378-3 0  9992
2 28738  97.3603  64.5209 0007622  91.2238 268.9891 15.58423059136876
